[{"OBJECT_NAME":"GENMAT-1","OBJECT_ID":"2023-174W","EPOCH":"2026-03-09T18:03:23.351040","MEAN_MOTION":15.32594666,"ECCENTRICITY":0.00074416,"INCLINATION":97.3728,"RA_OF_ASC_NODE":146.8236,"ARG_OF_PERICENTER":169.2515,"MEAN_ANOMALY":190.8888,"EPHEMERIS_TYPE":0,"CLASSIFICATION_TYPE":"U","NORAD_CAT_ID":58276,"ELEMENT_SET_NO":999,"REV_AT_EPOCH":12973,"BSTAR":0.00042157222,"MEAN_MOTION_DOT":0.0001321,"MEAN_MOTION_DDOT":0},{"OBJECT_NAME":"STARLINK-35101","OBJECT_ID":"2025-212AA","EPOCH":"2026-03-09T22:07:10.390656","MEAN_MOTION":15.30207682,"ECCENTRICITY":0.00010877,"INCLINATION":53.1585,"RA_OF_ASC_NODE":344.2668,"ARG_OF_PERICENTER":94.0579,"MEAN_ANOMALY":266.0546,"EPHEMERIS_TYPE":0,"CLASSIFICATION_TYPE":"U","NORAD_CAT_ID":65700,"ELEMENT_SET_NO":999,"REV_AT_EPOCH":2723,"BSTAR":0.00087534217,"MEAN_MOTION_DOT":0.00025662,"MEAN_MOTION_DDOT":0}]
